FENGYUN 1C DEB          
1 33502U 99025DCF 17345.73907398  .00001153  00000-0  76743-3 0  9994
2 33502  99.0129 265.5727 0106342  31.6588  29.0225 14.00532932458866
